IRIDIUM 159             
1 43578U 18061K   23337.40123057  .00000698  00000+0  24206-3 0  9992
2 43578  86.3965  84.0452 0001915  95.1080 265.0334 14.34217724280545
IRIDIUM 180             
1 43922U 19002A   23337.54026647  .00000499  00000+0  17109-3 0  9996
2 43922  86.3987  20.8610 0001940  90.1427 269.9991 14.34216174256176
IRIDIUM 176             
1 43923U 19002B   23337.55526627  .00001862  00000+0  29104-3 0  9994
2 43923  86.6116  20.8866 0002351  93.6689 266.4797 14.72290812262910
IRIDIUM 168             
1 43924U 19002C   23337.60368904  .00000512  00000+0  17585-3 0  9994
2 43924  86.3990  20.8856 0001996  93.4846 266.6579 14.34216561256161
IRIDIUM 173             
1 43925U 19002D   23337.52123629  .00000498  00000+0  17060-3 0  9990
2 43925  86.3986  20.8468 0002055  97.1453 262.9976 14.34220246256130
IRIDIUM 169             
1 43926U 19002E   23337.28244915  .00000809  00000+0  25793-3 0  9994
2 43926  86.4240  52.5521 0004300 132.3458 227.8105 14.38618393256962
IRIDIUM 172             
1 43927U 19002F   23337.58466136  .00000516  00000+0  17700-3 0  9993
2 43927  86.3986  20.8256 0002012  90.4336 269.7090 14.34220768256159
IRIDIUM 175             
1 43928U 19002G   23337.54912546  .00001512  00000+0  23601-3 0  9995
2 43928  86.1519   5.1545 0002394  92.7259 267.4232 14.72213464262909
